STARLINK-2524           
1 48304U 21036AE  25210.72358844  .00000437  00000+0  48249-4 0  9996
2 48304  53.0552  12.5482 0001458  96.4574 263.6581 15.06397966234569
STARLINK-2519           
1 48305U 21036AF  25210.77527005  .00001413  00000+0  11376-3 0  9994
2 48305  53.0552  12.8970 0001114  84.3760 275.7356 15.06396185234563
STARLINK-2523           
1 48306U 21036AG  25210.71622636 -.00000205  00000+0  51600-5 0  9990
2 48306  53.0564  12.5878 0001457  91.9736 268.1420 15.06389211234568
STARLINK-2517           
1 48309U 21036AK  25210.77150944 -.00000156  00000+0  83903-5 0  9993
2 48309  53.0557  12.3374 0001403  95.5115 264.6034 15.06391245234577
STARLINK-2536           
1 48310U 21036AL  25210.76782768 -.00000298  00000+0 -11142-5 0  9993
2 48310  53.0562  12.3553 0001266  85.4090 274.7043 15.06390363234573
STARLINK-2534           
1 48311U 21036AM  25210.76414635  .00002494  00000+0  18628-3 0  9991
2 48311  53.0563  12.3716 0001290  88.5473 271.5664 15.06395744234574
STARLINK-2061           
1 48312U 21036AN  25210.76045614  .00000591  00000+0  58592-4 0  9990
2 48312  53.0557  12.3880 0001384  90.8818 269.2329 15.06393954234576
STARLINK-2549           
1 48314U 21036AQ  25210.75309203  .00000331  00000+0  41102-4 0  9999
2 48314  53.0570  12.4191 0001403  91.2373 268.8777 15.06389809234567
STARLINK-2506           
1 48315U 21036AR  25210.74939765  .00000426  00000+0  47513-4 0  9998
2 48315  53.0575  12.4392 0001434  96.2485 263.8667 15.06390603234566
STARLINK-2507           
1 48316U 21036AS  25210.74570632  .00000635  00000+0  61514-4 0  9992
2 48316  53.0558  12.4538 0001391  93.4229 266.6919 15.06395348234569
STARLINK-2513           
1 48317U 21036AT  25210.67567995  .00000502  00000+0  52624-4 0  9998
2 48317  53.0565  12.7700 0001395 100.7098 259.4048 15.06390510234550
STARLINK-2509           
1 48318U 21036AU  25210.80007797  .00000992  00000+0  85474-4 0  9995
2 48318  53.0562  22.2066 0001285  86.2195 273.8941 15.06393971234436
STARLINK-2512           
1 48319U 21036AV  25210.46370361  .00002172  00000+0  16464-3 0  9992
2 48319  53.0553  23.7082 0001175  97.4180 262.6942 15.06396079234380
STARLINK-2029           
1 48320U 21036AW  25210.79270640 -.00000254  00000+0  18378-5 0  9997
2 48320  53.0559  22.2399 0001435  87.3957 272.7196 15.06390395234436
STARLINK-2457           
1 48321U 21036AX  25210.78902117  .00000333  00000+0  41278-4 0  9999
2 48321  53.0562  22.2604 0001441  88.1937 271.9217 15.06391881234430
STARLINK-2515           
1 48323U 21036AZ  25210.78164839  .00000746  00000+0  68999-4 0  9999
2 48323  53.0560  22.2929 0001222  86.5409 273.5719 15.06394684234432
STARLINK-2495           
1 48325U 21036BB  25210.77427468  .00000505  00000+0  52801-4 0  9998
2 48325  53.0557  22.3267 0001422  89.5137 270.6015 15.06394113234433
