[{"OBJECT_NAME":"STARLINK-2524","OBJECT_ID":"2021-036AE","EPOCH":"2025-07-29T17:21:58.041216","MEAN_MOTION":15.06397966,"ECCENTRICITY":0.0001458,"INCLINATION":53.0552,"RA_OF_ASC_NODE":12.5482,"ARG_OF_PERICENTER":96.4574,"MEAN_ANOMALY":263.6581,"EPHEMERIS_TYPE":0,"CLASSIFICATION_TYPE":"U","NORAD_CAT_ID":48304,"ELEMENT_SET_NO":999,"REV_AT_EPOCH":23456,"BSTAR":4.8249e-5,"MEAN_MOTION_DOT":4.37e-6,"MEAN_MOTION_DDOT":0},{"OBJECT_NAME":"STARLINK-2519","OBJECT_ID":"2021-036AF","EPOCH":"2025-07-29T18:36:23.332320","MEAN_MOTION":15.06396185,"ECCENTRICITY":0.0001114,"INCLINATION":53.0552,"RA_OF_ASC_NODE":12.897,"ARG_OF_PERICENTER":84.376,"MEAN_ANOMALY":275.7356,"EPHEMERIS_TYPE":0,"CLASSIFICATION_TYPE":"U","NORAD_CAT_ID":48305,"ELEMENT_SET_NO":999,"REV_AT_EPOCH":23456,"BSTAR":0.00011376,"MEAN_MOTION_DOT":1.413e-5,"MEAN_MOTION_DDOT":0},{"OBJECT_NAME":"STARLINK-2523","OBJECT_ID":"2021-036AG","EPOCH":"2025-07-29T17:11:21.957504","MEAN_MOTION":15.06389211,"ECCENTRICITY":0.0001457,"INCLINATION":53.0564,"RA_OF_ASC_NODE":12.5878,"ARG_OF_PERICENTER":91.9736,"MEAN_ANOMALY":268.142,"EPHEMERIS_TYPE":0,"CLASSIFICATION_TYPE":"U","NORAD_CAT_ID":48306,"ELEMENT_SET_NO":999,"REV_AT_EPOCH":23456,"BSTAR":5.16e-6,"MEAN_MOTION_DOT":-2.05e-6,"MEAN_MOTION_DDOT":0},{"OBJECT_NAME":"STARLINK-2517","OBJECT_ID":"2021-036AK","EPOCH":"2025-07-29T18:30:58.415616","MEAN_MOTION":15.06391245,"ECCENTRICITY":0.0001403,"INCLINATION":53.0557,"RA_OF_ASC_NODE":12.3374,"ARG_OF_PERICENTER":95.5115,"MEAN_ANOMALY":264.6034,"EPHEMERIS_TYPE":0,"CLASSIFICATION_TYPE":"U","NORAD_CAT_ID":48309,"ELEMENT_SET_NO":999,"REV_AT_EPOCH":23457,"BSTAR":8.3903e-6,"MEAN_MOTION_DOT":-1.56e-6,"MEAN_MOTION_DDOT":0},{"OBJECT_NAME":"STARLINK-2536","OBJECT_ID":"2021-036AL","EPOCH":"2025-07-29T18:25:40.311552","MEAN_MOTION":15.06390363,"ECCENTRICITY":0.0001266,"INCLINATION":53.0562,"RA_OF_ASC_NODE":12.3553,"ARG_OF_PERICENTER":85.409,"MEAN_ANOMALY":274.7043,"EPHEMERIS_TYPE":0,"CLASSIFICATION_TYPE":"U","NORAD_CAT_ID":48310,"ELEMENT_SET_NO":999,"REV_AT_EPOCH":23457,"BSTAR":-1.1142e-6,"MEAN_MOTION_DOT":-2.98e-6,"MEAN_MOTION_DDOT":0},{"OBJECT_NAME":"STARLINK-2534","OBJECT_ID":"2021-036AM","EPOCH":"2025-07-29T18:20:22.244640","MEAN_MOTION":15.06395744,"ECCENTRICITY":0.000129,"INCLINATION":53.0563,"RA_OF_ASC_NODE":12.3716,"ARG_OF_PERICENTER":88.5473,"MEAN_ANOMALY":271.5664,"EPHEMERIS_TYPE":0,"CLASSIFICATION_TYPE":"U","NORAD_CAT_ID":48311,"ELEMENT_SET_NO":999,"REV_AT_EPOCH":23457,"BSTAR":0.00018628,"MEAN_MOTION_DOT":2.494e-5,"MEAN_MOTION_DDOT":0},{"OBJECT_NAME":"STARLINK-2061","OBJECT_ID":"2021-036AN","EPOCH":"2025-07-29T18:15:03.410496","MEAN_MOTION":15.06393954,"ECCENTRICITY":0.0001384,"INCLINATION":53.0557,"RA_OF_ASC_NODE":12.388,"ARG_OF_PERICENTER":90.8818,"MEAN_ANOMALY":269.2329,"EPHEMERIS_TYPE":0,"CLASSIFICATION_TYPE":"U","NORAD_CAT_ID":48312,"ELEMENT_SET_NO":999,"REV_AT_EPOCH":23457,"BSTAR":5.8592e-5,"MEAN_MOTION_DOT":5.91e-6,"MEAN_MOTION_DDOT":0},{"OBJECT_NAME":"STARLINK-2549","OBJECT_ID":"2021-036AQ","EPOCH":"2025-07-29T18:04:27.151392","MEAN_MOTION":15.06389809,"ECCENTRICITY":0.0001403,"INCLINATION":53.057,"RA_OF_ASC_NODE":12.4191,"ARG_OF_PERICENTER":91.2373,"MEAN_ANOMALY":268.8777,"EPHEMERIS_TYPE":0,"CLASSIFICATION_TYPE":"U","NORAD_CAT_ID":48314,"ELEMENT_SET_NO":999,"REV_AT_EPOCH":23456,"BSTAR":4.1102e-5,"MEAN_MOTION_DOT":3.31e-6,"MEAN_MOTION_DDOT":0},{"OBJECT_NAME":"STARLINK-2506","OBJECT_ID":"2021-036AR","EPOCH":"2025-07-29T17:59:07.956960","MEAN_MOTION":15.06390603,"ECCENTRICITY":0.0001434,"INCLINATION":53.0575,"RA_OF_ASC_NODE":12.4392,"ARG_OF_PERICENTER":96.2485,"MEAN_ANOMALY":263.8667,"EPHEMERIS_TYPE":0,"CLASSIFICATION_TYPE":"U","NORAD_CAT_ID":48315,"ELEMENT_SET_NO":999,"REV_AT_EPOCH":23456,"BSTAR":4.7513e-5,"MEAN_MOTION_DOT":4.26e-6,"MEAN_MOTION_DDOT":0},{"OBJECT_NAME":"STARLINK-2507","OBJECT_ID":"2021-036AS","EPOCH":"2025-07-29T17:53:49.026048","MEAN_MOTION":15.06395348,"ECCENTRICITY":0.0001391,"INCLINATION":53.0558,"RA_OF_ASC_NODE":12.4538,"ARG_OF_PERICENTER":93.4229,"MEAN_ANOMALY":266.6919,"EPHEMERIS_TYPE":0,"CLASSIFICATION_TYPE":"U","NORAD_CAT_ID":48316,"ELEMENT_SET_NO":999,"REV_AT_EPOCH":23456,"BSTAR":6.1514e-5,"MEAN_MOTION_DOT":6.35e-6,"MEAN_MOTION_DDOT":0},{"OBJECT_NAME":"STARLINK-2513","OBJECT_ID":"2021-036AT","EPOCH":"2025-07-29T16:12:58.747680","MEAN_MOTION":15.0639051,"ECCENTRICITY":0.0001395,"INCLINATION":53.0565,"RA_OF_ASC_NODE":12.77,"ARG_OF_PERICENTER":100.7098,"MEAN_ANOMALY":259.4048,"EPHEMERIS_TYPE":0,"CLASSIFICATION_TYPE":"U","NORAD_CAT_ID":48317,"ELEMENT_SET_NO":999,"REV_AT_EPOCH":23455,"BSTAR":5.2624e-5,"MEAN_MOTION_DOT":5.02e-6,"MEAN_MOTION_DDOT":0},{"OBJECT_NAME":"STARLINK-2509","OBJECT_ID":"2021-036AU","EPOCH":"2025-07-29T19:12:06.736608","MEAN_MOTION":15.06393971,"ECCENTRICITY":0.0001285,"INCLINATION":53.0562,"RA_OF_ASC_NODE":22.2066,"ARG_OF_PERICENTER":86.2195,"MEAN_ANOMALY":273.8941,"EPHEMERIS_TYPE":0,"CLASSIFICATION_TYPE":"U","NORAD_CAT_ID":48318,"ELEMENT_SET_NO":999,"REV_AT_EPOCH":23443,"BSTAR":8.5474e-5,"MEAN_MOTION_DOT":9.92e-6,"MEAN_MOTION_DDOT":0},{"OBJECT_NAME":"STARLINK-2512","OBJECT_ID":"2021-036AV","EPOCH":"2025-07-29T11:07:43.991904","MEAN_MOTION":15.06396079,"ECCENTRICITY":0.0001175,"INCLINATION":53.0553,"RA_OF_ASC_NODE":23.7082,"ARG_OF_PERICENTER":97.418,"MEAN_ANOMALY":262.6942,"EPHEMERIS_TYPE":0,"CLASSIFICATION_TYPE":"U","NORAD_CAT_ID":48319,"ELEMENT_SET_NO":999,"REV_AT_EPOCH":23438,"BSTAR":0.00016464,"MEAN_MOTION_DOT":2.172e-5,"MEAN_MOTION_DDOT":0},{"OBJECT_NAME":"STARLINK-2029","OBJECT_ID":"2021-036AW","EPOCH":"2025-07-29T19:01:29.832960","MEAN_MOTION":15.06390395,"ECCENTRICITY":0.0001435,"INCLINATION":53.0559,"RA_OF_ASC_NODE":22.2399,"ARG_OF_PERICENTER":87.3957,"MEAN_ANOMALY":272.7196,"EPHEMERIS_TYPE":0,"CLASSIFICATION_TYPE":"U","NORAD_CAT_ID":48320,"ELEMENT_SET_NO":999,"REV_AT_EPOCH":23443,"BSTAR":1.8378e-6,"MEAN_MOTION_DOT":-2.54e-6,"MEAN_MOTION_DDOT":0},{"OBJECT_NAME":"STARLINK-2457","OBJECT_ID":"2021-036AX","EPOCH":"2025-07-29T18:56:11.429088","MEAN_MOTION":15.06391881,"ECCENTRICITY":0.0001441,"INCLINATION":53.0562,"RA_OF_ASC_NODE":22.2604,"ARG_OF_PERICENTER":88.1937,"MEAN_ANOMALY":271.9217,"EPHEMERIS_TYPE":0,"CLASSIFICATION_TYPE":"U","NORAD_CAT_ID":48321,"ELEMENT_SET_NO":999,"REV_AT_EPOCH":23443,"BSTAR":4.1278e-5,"MEAN_MOTION_DOT":3.33e-6,"MEAN_MOTION_DDOT":0},{"OBJECT_NAME":"STARLINK-2515","OBJECT_ID":"2021-036AZ","EPOCH":"2025-07-29T18:45:34.420896","MEAN_MOTION":15.06394684,"ECCENTRICITY":0.0001222,"INCLINATION":53.056,"RA_OF_ASC_NODE":22.2929,"ARG_OF_PERICENTER":86.5409,"MEAN_ANOMALY":273.5719,"EPHEMERIS_TYPE":0,"CLASSIFICATION_TYPE":"U","NORAD_CAT_ID":48323,"ELEMENT_SET_NO":999,"REV_AT_EPOCH":23443,"BSTAR":6.8999e-5,"MEAN_MOTION_DOT":7.46e-6,"MEAN_MOTION_DDOT":0},{"OBJECT_NAME":"STARLINK-2495","OBJECT_ID":"2021-036BB","EPOCH":"2025-07-29T18:34:57.332352","MEAN_MOTION":15.06394113,"ECCENTRICITY":0.0001422,"INCLINATION":53.0557,"RA_OF_ASC_NODE":22.3267,"ARG_OF_PERICENTER":89.5137,"MEAN_ANOMALY":270.6015,"EPHEMERIS_TYPE":0,"CLASSIFICATION_TYPE":"U","NORAD_CAT_ID":48325,"ELEMENT_SET_NO":999,"REV_AT_EPOCH":23443,"BSTAR":5.2801e-5,"MEAN_MOTION_DOT":5.05e-6,"MEAN_MOTION_DDOT":0}]
